{
  "type": "FeatureCollection",
  "features": [
    {
      "type": "Feature",
      "properties": {
        "norad_id": 28054,
        "name": "DMSP 5D-3 F16 (USA 172)",
        "group": "weather",
        "lat": 16.049195743228925,
        "lon": 177.45179831290605,
        "alt_km": 849.8468759159259,
        "timestamp": "2025-12-03T10:52:57.089815+00:00",
        "meta_object_name": "DMSP 5D-3 F16 (USA 172)",
        "meta_object_id": "2003-048A",
        "meta_epoch": "2025-12-03T03:44:11.563296",
        "meta_mean_motion": 14.14418638,
        "meta_eccentricity": 0.0006899,
        "meta_inclination": 99.0053,
        "meta_ra_of_asc_node": 354.537,
        "meta_arg_of_pericenter": 350.0143,
        "meta_mean_anomaly": 98.3447,
        "meta_ephemeris_type": 0,
        "meta_classification_type": "U",
        "meta_norad_cat_id": 28054,
        "meta_element_set_no": 999,
        "meta_rev_at_epoch": 14177,
        "meta_bstar": 0.00013205,
        "meta_mean_motion_dot": 2.07e-06,
        "meta_mean_motion_ddot": 0,
        "tle_line1": "1 28054U 03048A   25337.15568939  .00000207  00000+0  13205-3 0  9992",
        "tle_line2": "2 28054  99.0053 354.5370 0006899 350.0143  98.3447 14.14418638141777"
      },
      "geometry": {
        "type": "Point",
        "coordinates": [
          177.45179831290605,
          16.049195743228925
        ]
      }
    },
    {
      "type": "Feature",
      "properties": {
        "norad_id": 28912,
        "name": "METEOSAT-9 (MSG-2)",
        "group": "weather",
        "lat": -6.348786691951224,
        "lon": -78.95044426261927,
        "alt_km": 35774.033682873276,
        "timestamp": "2025-12-03T10:52:57.089873+00:00",
        "meta_object_name": "METEOSAT-9 (MSG-2)",
        "meta_object_id": "2005-049B",
        "meta_epoch": "2025-12-02T20:50:55.807008",
        "meta_mean_motion": 1.00271253,
        "meta_eccentricity": 0.0004004,
        "meta_inclination": 8.9157,
        "meta_ra_of_asc_node": 56.0648,
        "meta_arg_of_pericenter": 185.08,
        "meta_mean_anomaly": 189.154,
        "meta_ephemeris_type": 0,
        "meta_classification_type": "U",
        "meta_norad_cat_id": 28912,
        "meta_element_set_no": 999,
        "meta_rev_at_epoch": 503,
        "meta_bstar": 0,
        "meta_mean_motion_dot": 1.39e-06,
        "meta_mean_motion_ddot": 0,
        "tle_line1": "1 28912U 05049B   25336.86870147  .00000139  00000+0  00000+0 0  9991",
        "tle_line2": "2 28912   8.9157  56.0648 0004004 185.0800 189.1540  1.00271253  5030"
      },
      "geometry": {
        "type": "Point",
        "coordinates": [
          -78.95044426261927,
          -6.348786691951224
        ]
      }
    },
    {
      "type": "Feature",
      "properties": {
        "norad_id": 29522,
        "name": "DMSP 5D-3 F17 (USA 191)",
        "group": "weather",
        "lat": 80.95169345799242,
        "lon": -91.96454031080309,
        "alt_km": 841.5805425477038,
        "timestamp": "2025-12-03T10:52:57.089891+00:00",
        "meta_object_name": "DMSP 5D-3 F17 (USA 191)",
        "meta_object_id": "2006-050A",
        "meta_epoch": "2025-12-03T03:40:49.783872",
        "meta_mean_motion": 14.1491278,
        "meta_eccentricity": 0.0009153,
        "meta_inclination": 98.7394,
        "meta_ra_of_asc_node": 342.742,
        "meta_arg_of_pericenter": 254.8852,
        "meta_mean_anomaly": 105.1309,
        "meta_ephemeris_type": 0,
        "meta_classification_type": "U",
        "meta_norad_cat_id": 29522,
        "meta_element_set_no": 999,
        "meta_rev_at_epoch": 98469,
        "meta_bstar": 0.00015337,
        "meta_mean_motion_dot": 2.53e-06,
        "meta_mean_motion_ddot": 0,
        "tle_line1": "1 29522U 06050A   25337.15335398  .00000253  00000+0  15337-3 0  9999",
        "tle_line2": "2 29522  98.7394 342.7420 0009153 254.8852 105.1309 14.14912780984698"
      },
      "geometry": {
        "type": "Point",
        "coordinates": [
          -91.96454031080309,
          80.95169345799242
        ]
      }
    },
    {
      "type": "Feature",
      "properties": {
        "norad_id": 32958,
        "name": "FENGYUN 3A",
        "group": "weather",
        "lat": 8.165841104374886,
        "lon": -84.07805042485829,
        "alt_km": 823.5398685203509,
        "timestamp": "2025-12-03T10:52:57.089905+00:00",
        "meta_object_name": "FENGYUN 3A",
        "meta_object_id": "2008-026A",
        "meta_epoch": "2025-12-03T02:23:07.410048",
        "meta_mean_motion": 14.19509402,
        "meta_eccentricity": 0.0008366,
        "meta_inclination": 98.6683,
        "meta_ra_of_asc_node": 276.8298,
        "meta_arg_of_pericenter": 340.1744,
        "meta_mean_anomaly": 19.9106,
        "meta_ephemeris_type": 0,
        "meta_classification_type": "U",
        "meta_norad_cat_id": 32958,
        "meta_element_set_no": 999,
        "meta_rev_at_epoch": 90758,
        "meta_bstar": 9.6774e-05,
        "meta_mean_motion_dot": 1.61e-06,
        "meta_mean_motion_ddot": 0,
        "tle_line1": "1 32958U 08026A   25337.09939132  .00000161  00000+0  96774-4 0  9993",
        "tle_line2": "2 32958  98.6683 276.8298 0008366 340.1744  19.9106 14.19509402907587"
      },
      "geometry": {
        "type": "Point",
        "coordinates": [
          -84.07805042485829,
          8.165841104374886
        ]
      }
    },
    {
      "type": "Feature",
      "properties": {
        "norad_id": 35491,
        "name": "GOES 14",
        "group": "weather",
        "lat": 0.7881796185092521,
        "lon": 127.3675925133312,
        "alt_km": 35791.323802331586,
        "timestamp": "2025-12-03T10:52:57.089920+00:00",
        "meta_object_name": "GOES 14",
        "meta_object_id": "2009-033A",
        "meta_epoch": "2025-12-03T02:57:59.985216",
        "meta_mean_motion": 1.00272653,
        "meta_eccentricity": 0.0004173,
        "meta_inclination": 1.1722,
        "meta_ra_of_asc_node": 85.5194,
        "meta_arg_of_pericenter": 150.1599,
        "meta_mean_anomaly": 132.6995,
        "meta_ephemeris_type": 0,
        "meta_classification_type": "U",
        "meta_norad_cat_id": 35491,
        "meta_element_set_no": 999,
        "meta_rev_at_epoch": 462,
        "meta_bstar": 0,
        "meta_mean_motion_dot": -4.9e-07,
        "meta_mean_motion_ddot": 0,
        "tle_line1": "1 35491U 09033A   25337.12361094 -.00000049  00000+0  00000+0 0  9995",
        "tle_line2": "2 35491   1.1722  85.5194 0004173 150.1599 132.6995  1.00272653  4627"
      },
      "geometry": {
        "type": "Point",
        "coordinates": [
          127.3675925133312,
          0.7881796185092521
        ]
      }
    },
    {
      "type": "Feature",
      "properties": {
        "norad_id": 35951,
        "name": "DMSP 5D-3 F18 (USA 210)",
        "group": "weather",
        "lat": -39.58630351523669,
        "lon": -38.669441764713824,
        "alt_km": 854.8054168610606,
        "timestamp": "2025-12-03T10:52:57.089933+00:00",
        "meta_object_name": "DMSP 5D-3 F18 (USA 210)",
        "meta_object_id": "2009-057A",
        "meta_epoch": "2025-12-03T04:16:57.859680",
        "meta_mean_motion": 14.14760198,
        "meta_eccentricity": 0.0012112,
        "meta_inclination": 98.8823,
        "meta_ra_of_asc_node": 313.6276,
        "meta_arg_of_pericenter": 87.5959,
        "meta_mean_anomaly": 272.6601,
        "meta_ephemeris_type": 0,
        "meta_classification_type": "U",
        "meta_norad_cat_id": 35951,
        "meta_element_set_no": 999,
        "meta_rev_at_epoch": 83187,
        "meta_bstar": 0.00020873,
        "meta_mean_motion_dot": 3.58e-06,
        "meta_mean_motion_ddot": 0,
        "tle_line1": "1 35951U 09057A   25337.17844745  .00000358  00000+0  20873-3 0  9992",
        "tle_line2": "2 35951  98.8823 313.6276 0012112  87.5959 272.6601 14.14760198831873"
      },
      "geometry": {
        "type": "Point",
        "coordinates": [
          -38.669441764713824,
          -39.58630351523669
        ]
      }
    },
    {
      "type": "Feature",
      "properties": {
        "norad_id": 36411,
        "name": "EWS-G2 (GOES 15)",
        "group": "weather",
        "lat": -0.4187671927797599,
        "lon": -62.70004617080279,
        "alt_km": 35768.44819697717,
        "timestamp": "2025-12-03T10:52:57.089947+00:00",
        "meta_object_name": "EWS-G2 (GOES 15)",
        "meta_object_id": "2010-008A",
        "meta_epoch": "2025-12-03T00:20:58.180128",
        "meta_mean_motion": 1.00267636,
        "meta_eccentricity": 0.0005949,
        "meta_inclination": 0.7877,
        "meta_ra_of_asc_node": 86.0559,
        "meta_arg_of_pericenter": 169.5873,
        "meta_mean_anomaly": 243.2159,
        "meta_ephemeris_type": 0,
        "meta_classification_type": "U",
        "meta_norad_cat_id": 36411,
        "meta_element_set_no": 999,
        "meta_rev_at_epoch": 5767,
        "meta_bstar": 0,
        "meta_mean_motion_dot": 5.7e-07,
        "meta_mean_motion_ddot": 0,
        "tle_line1": "1 36411U 10008A   25337.01456227  .00000057  00000+0  00000+0 0  9991",
        "tle_line2": "2 36411   0.7877  86.0559 0005949 169.5873 243.2159  1.00267636 57677"
      },
      "geometry": {
        "type": "Point",
        "coordinates": [
          -62.70004617080279,
          -0.4187671927797599
        ]
      }
    }
  ]
}